{
  "type": "FeatureCollection",
  "features": [
    {
      "type": "Feature",
      "properties": {
        "norad_id": 66541,
        "name": "STARLINK-35796",
        "group": "last-30-days",
        "lat": -41.87396974696579,
        "lon": 42.02464835183964,
        "alt_km": 346.76806518614285,
        "timestamp": "2025-12-02T06:27:51.801952+00:00",
        "meta_object_name": "STARLINK-35796",
        "meta_object_id": "2025-265AB",
        "meta_epoch": "2025-12-01T20:00:01.999008",
        "meta_mean_motion": 15.75068047,
        "meta_eccentricity": 0.0001573,
        "meta_inclination": 42.9998,
        "meta_ra_of_asc_node": 118.8271,
        "meta_arg_of_pericenter": 279.6509,
        "meta_mean_anomaly": 46.9077,
        "meta_ephemeris_type": 0,
        "meta_classification_type": "U",
        "meta_norad_cat_id": 66541,
        "meta_element_set_no": 999,
        "meta_rev_at_epoch": 324,
        "meta_bstar": -0.00022106,
        "meta_mean_motion_dot": -0.0003434,
        "meta_mean_motion_ddot": 0,
        "tle_line1": "1 66541U 25265AB  25335.83335647 -.00034340  00000+0 -22106-3 0  9998",
        "tle_line2": "2 66541  42.9998 118.8271 0001573 279.6509  46.9077 15.75068047  3242"
      },
      "geometry": {
        "type": "Point",
        "coordinates": [
          42.02464835183964,
          -41.87396974696579
        ]
      }
    },
    {
      "type": "Feature",
      "properties": {
        "norad_id": 66542,
        "name": "STARLINK-35833",
        "group": "last-30-days",
        "lat": -41.49002466869454,
        "lon": 44.5335903169913,
        "alt_km": 346.7591520063106,
        "timestamp": "2025-12-02T06:27:51.801963+00:00",
        "meta_object_name": "STARLINK-35833",
        "meta_object_id": "2025-265AC",
        "meta_epoch": "2025-12-01T20:00:01.999008",
        "meta_mean_motion": 15.75071551,
        "meta_eccentricity": 0.000158,
        "meta_inclination": 42.9999,
        "meta_ra_of_asc_node": 118.8229,
        "meta_arg_of_pericenter": 275.5438,
        "meta_mean_anomaly": 52.9311,
        "meta_ephemeris_type": 0,
        "meta_classification_type": "U",
        "meta_norad_cat_id": 66542,
        "meta_element_set_no": 999,
        "meta_rev_at_epoch": 324,
        "meta_bstar": -0.00026807,
        "meta_mean_motion_dot": -0.00041511,
        "meta_mean_motion_ddot": 0,
        "tle_line1": "1 66542U 25265AC  25335.83335647 -.00041511  00000+0 -26807-3 0  9999",
        "tle_line2": "2 66542  42.9999 118.8229 0001580 275.5438  52.9311 15.75071551  3243"
      },
      "geometry": {
        "type": "Point",
        "coordinates": [
          44.5335903169913,
          -41.49002466869454
        ]
      }
    },
    {
      "type": "Feature",
      "properties": {
        "norad_id": 66543,
        "name": "STARLINK-35315",
        "group": "last-30-days",
        "lat": -41.054513636878816,
        "lon": 46.99515471030587,
        "alt_km": 346.7625166546841,
        "timestamp": "2025-12-02T06:27:51.801972+00:00",
        "meta_object_name": "STARLINK-35315",
        "meta_object_id": "2025-265AD",
        "meta_epoch": "2025-12-01T20:00:01.999008",
        "meta_mean_motion": 15.75062842,
        "meta_eccentricity": 0.0001525,
        "meta_inclination": 42.9999,
        "meta_ra_of_asc_node": 118.8166,
        "meta_arg_of_pericenter": 273.6925,
        "meta_mean_anomaly": 56.6894,
        "meta_ephemeris_type": 0,
        "meta_classification_type": "U",
        "meta_norad_cat_id": 66543,
        "meta_element_set_no": 999,
        "meta_rev_at_epoch": 313,
        "meta_bstar": -0.00013733,
        "meta_mean_motion_dot": -0.00021541,
        "meta_mean_motion_ddot": 0,
        "tle_line1": "1 66543U 25265AD  25335.83335647 -.00021541  00000+0 -13733-3 0  9995",
        "tle_line2": "2 66543  42.9999 118.8166 0001525 273.6925  56.6894 15.75062842  3131"
      },
      "geometry": {
        "type": "Point",
        "coordinates": [
          46.99515471030587,
          -41.054513636878816
        ]
      }
    },
    {
      "type": "Feature",
      "properties": {
        "norad_id": 66544,
        "name": "STARLINK-35728",
        "group": "last-30-days",
        "lat": -40.561728684578696,
        "lon": 49.44926995774893,
        "alt_km": 346.7429424737802,
        "timestamp": "2025-12-02T06:27:51.801984+00:00",
        "meta_object_name": "STARLINK-35728",
        "meta_object_id": "2025-265AE",
        "meta_epoch": "2025-12-01T20:00:01.999008",
        "meta_mean_motion": 15.75066704,
        "meta_eccentricity": 0.0001577,
        "meta_inclination": 42.9998,
        "meta_ra_of_asc_node": 118.8125,
        "meta_arg_of_pericenter": 273.3129,
        "meta_mean_anomaly": 59.001,
        "meta_ephemeris_type": 0,
        "meta_classification_type": "U",
        "meta_norad_cat_id": 66544,
        "meta_element_set_no": 999,
        "meta_rev_at_epoch": 324,
        "meta_bstar": -0.00024388,
        "meta_mean_motion_dot": -0.00037818,
        "meta_mean_motion_ddot": 0,
        "tle_line1": "1 66544U 25265AE  25335.83335647 -.00037818  00000+0 -24388-3 0  9998",
        "tle_line2": "2 66544  42.9998 118.8125 0001577 273.3129  59.0010 15.75066704  3246"
      },
      "geometry": {
        "type": "Point",
        "coordinates": [
          49.44926995774893,
          -40.561728684578696
        ]
      }
    },
    {
      "type": "Feature",
      "properties": {
        "norad_id": 66545,
        "name": "SHIJIAN-30A",
        "group": "last-30-days",
        "lat": -10.46730812965563,
        "lon": 13.540592352843328,
        "alt_km": 514.318058999077,
        "timestamp": "2025-12-02T06:27:51.801994+00:00",
        "meta_object_name": "SHIJIAN-30A",
        "meta_object_id": "2025-266A",
        "meta_epoch": "2025-12-01T19:26:35.013408",
        "meta_mean_motion": 15.15284098,
        "meta_eccentricity": 0.0012734,
        "meta_inclination": 51.7992,
        "meta_ra_of_asc_node": 24.0574,
        "meta_arg_of_pericenter": 317.2402,
        "meta_mean_anomaly": 42.7583,
        "meta_ephemeris_type": 0,
        "meta_classification_type": "U",
        "meta_norad_cat_id": 66545,
        "meta_element_set_no": 999,
        "meta_rev_at_epoch": 192,
        "meta_bstar": 0.00067083,
        "meta_mean_motion_dot": 0.00012521,
        "meta_mean_motion_ddot": 0,
        "tle_line1": "1 66545U 25266A   25335.81012747  .00012521  00000+0  67083-3 0  9992",
        "tle_line2": "2 66545  51.7992  24.0574 0012734 317.2402  42.7583 15.15284098  1923"
      },
      "geometry": {
        "type": "Point",
        "coordinates": [
          13.540592352843328,
          -10.46730812965563
        ]
      }
    },
    {
      "type": "Feature",
      "properties": {
        "norad_id": 66546,
        "name": "SHIJIAN-30B",
        "group": "last-30-days",
        "lat": -14.839884039194589,
        "lon": 9.872068822959154,
        "alt_km": 515.5918132495044,
        "timestamp": "2025-12-02T06:27:51.802009+00:00",
        "meta_object_name": "SHIJIAN-30B",
        "meta_object_id": "2025-266B",
        "meta_epoch": "2025-12-01T19:28:05.927808",
        "meta_mean_motion": 15.15338455,
        "meta_eccentricity": 0.0010406,
        "meta_inclination": 51.7975,
        "meta_ra_of_asc_node": 24.0627,
        "meta_arg_of_pericenter": 320.1473,
        "meta_mean_anomaly": 39.8738,
        "meta_ephemeris_type": 0,
        "meta_classification_type": "U",
        "meta_norad_cat_id": 66546,
        "meta_element_set_no": 999,
        "meta_rev_at_epoch": 192,
        "meta_bstar": 0.00077472,
        "meta_mean_motion_dot": 0.00014527,
        "meta_mean_motion_ddot": 0,
        "tle_line1": "1 66546U 25266B   25335.81117972  .00014527  00000+0  77472-3 0  9990",
        "tle_line2": "2 66546  51.7975  24.0627 0010406 320.1473  39.8738 15.15338455  1925"
      },
      "geometry": {
        "type": "Point",
        "coordinates": [
          9.872068822959154,
          -14.839884039194589
        ]
      }
    },
    {
      "type": "Feature",
      "properties": {
        "norad_id": 66547,
        "name": "SHIJIAN-30C",
        "group": "last-30-days",
        "lat": -18.111453756255386,
        "lon": 6.999328688904404,
        "alt_km": 515.3552661251142,
        "timestamp": "2025-12-02T06:27:51.802019+00:00",
        "meta_object_name": "SHIJIAN-30C",
        "meta_object_id": "2025-266C",
        "meta_epoch": "2025-12-01T19:29:14.718624",
        "meta_mean_motion": 15.1538212,
        "meta_eccentricity": 0.0011314,
        "meta_inclination": 51.7986,
        "meta_ra_of_asc_node": 24.0683,
        "meta_arg_of_pericenter": 312.3816,
        "meta_mean_anomaly": 47.6202,
        "meta_ephemeris_type": 0,
        "meta_classification_type": "U",
        "meta_norad_cat_id": 66547,
        "meta_element_set_no": 999,
        "meta_rev_at_epoch": 192,
        "meta_bstar": 0.00066043,
        "meta_mean_motion_dot": 0.00012352,
        "meta_mean_motion_ddot": 0,
        "tle_line1": "1 66547U 25266C   25335.81197591  .00012352  00000+0  66043-3 0  9992",
        "tle_line2": "2 66547  51.7986  24.0683 0011314 312.3816  47.6202 15.15382120  1924"
      },
      "geometry": {
        "type": "Point",
        "coordinates": [
          6.999328688904404,
          -18.111453756255386
        ]
      }
    }
  ]
}